start=new Date('2022-08-22T00:00:00.000Z').valueOf();
sats=[{"REF_FRAME":"TEME","EPHEMERIS_TYPE":"0","TIME_SYSTEM":"UTC","ARG_OF_PERICENTER":"95.8920","PERIAPSIS":"546.493","NORAD_CAT_ID":"46131","TLE_LINE2":"2 46131  53.0553 354.0385 0001113  95.8920 264.2196 15.06383642112287","EPOCH":"2022-08-21T19:27:25.335360","OBJECT_TYPE":"PAYLOAD","BSTAR":"0.00013170000000","SITE":"AFETR","MEAN_MOTION_DDOT":"0.0000000000000","RA_OF_ASC_NODE":"354.0385","MEAN_MOTION":"15.06383642","COUNTRY_CODE":"US","RCS_SIZE":"LARGE","DECAY_DATE":null,"MEAN_ANOMALY":"264.2196","TLE_LINE1":"1 46131U 20057Q   22233.81070990  .00001680  00000-0  13170-3 0  9995","APOAPSIS":"548.034","PERIOD":"95.593","FILE":"3542671","OBJECT_ID":"2020-057Q","CLASSIFICATION_TYPE":"U","OBJECT_NAME":"STARLINK-1625","MEAN_MOTION_DOT":"0.00001680","LAUNCH_DATE":"2020-08-18","ECCENTRICITY":"0.00011130","SEMIMAJOR_AXIS":"6925.399","GP_ID":"210688138","INCLINATION":"53.0553","CENTER_NAME":"EARTH","REV_AT_EPOCH":"11228","MEAN_ELEMENT_THEORY":"SGP4","ELEMENT_SET_NO":"999"},{"MEAN_MOTION_DOT":"0.00001354","LAUNCH_DATE":"2020-08-18","ECCENTRICITY":"0.00014340","SEMIMAJOR_AXIS":"6925.368","GP_ID":"210688388","INCLINATION":"53.0550","REV_AT_EPOCH":"11200","CENTER_NAME":"EARTH","MEAN_ELEMENT_THEORY":"SGP4","ELEMENT_SET_NO":"999","RCS_SIZE":"LARGE","DECAY_DATE":null,"TLE_LINE1":"1 46132U 20057R   22233.78306184  .00001354  00000-0  10980-3 0  9993","APOAPSIS":"548.226","MEAN_ANOMALY":"276.1230","PERIOD":"95.593","FILE":"3542671","OBJECT_ID":"2020-057R","CLASSIFICATION_TYPE":"U","OBJECT_NAME":"STARLINK-1630","NORAD_CAT_ID":"46132","TLE_LINE2":"2 46132  53.0550  14.1846 0001434  83.9922 276.1230 15.06393579112008","EPOCH":"2022-08-21T18:47:36.542976","OBJECT_TYPE":"PAYLOAD","BSTAR":"0.00010980000000","SITE":"AFETR","MEAN_MOTION_DDOT":"0.0000000000000","RA_OF_ASC_NODE":"14.1846","MEAN_MOTION":"15.06393579","COUNTRY_CODE":"US","REF_FRAME":"TEME","EPHEMERIS_TYPE":"0","TIME_SYSTEM":"UTC","ARG_OF_PERICENTER":"83.9922","PERIAPSIS":"546.240"},{"EPOCH":"2022-08-21T18:47:36.736512","BSTAR":"0.00020683000000","OBJECT_TYPE":"PAYLOAD","NORAD_CAT_ID":"46133","TLE_LINE2":"2 46133  53.0565 334.1747 0001390  93.0365 267.0783 15.06387214112555","MEAN_MOTION":"15.06387214","COUNTRY_CODE":"US","SITE":"AFETR","MEAN_MOTION_DDOT":"0.0000000000000","RA_OF_ASC_NODE":"334.1747","EPHEMERIS_TYPE":"0","REF_FRAME":"TEME","ARG_OF_PERICENTER":"93.0365","PERIAPSIS":"546.290","TIME_SYSTEM":"UTC","ECCENTRICITY":"0.00013900","GP_ID":"210689634","SEMIMAJOR_AXIS":"6925.388","MEAN_MOTION_DOT":"0.00002800","LAUNCH_DATE":"2020-08-18","REV_AT_EPOCH":"11255","MEAN_ELEMENT_THEORY":"SGP4","CENTER_NAME":"EARTH","ELEMENT_SET_NO":"999","INCLINATION":"53.0565","MEAN_ANOMALY":"267.0783","TLE_LINE1":"1 46133U 20057S   22233.78306408  .00002800  00000-0  20683-3 0  9991","APOAPSIS":"548.215","RCS_SIZE":"LARGE","DECAY_DATE":null,"OBJECT_ID":"2020-057S","FILE":"3542671","OBJECT_NAME":"STARLINK-1637","CLASSIFICATION_TYPE":"U","PERIOD":"95.593"},{"EPHEMERIS_TYPE":"0","REF_FRAME":"TEME","PERIAPSIS":"546.202","ARG_OF_PERICENTER":"92.2650","TIME_SYSTEM":"UTC","OBJECT_TYPE":"PAYLOAD","BSTAR":"0.00047606000000","EPOCH":"2022-08-21T17:16:01.432128","TLE_LINE2":"2 46134  53.0581 334.4513 0001478  92.2650 267.8508 15.06396160111296","NORAD_CAT_ID":"46134","COUNTRY_CODE":"US","MEAN_MOTION":"15.06396160","RA_OF_ASC_NODE":"334.4513","MEAN_MOTION_DDOT":"0.0000000000000","SITE":"AFETR","TLE_LINE1":"1 46134U 20057T   22233.71946102  .00006816  00000-0  47606-3 0  9991","APOAPSIS":"548.249","MEAN_ANOMALY":"267.8508","DECAY_DATE":null,"RCS_SIZE":"LARGE","CLASSIFICATION_TYPE":"U","OBJECT_NAME":"STARLINK-1638","FILE":"3542671","OBJECT_ID":"2020-057T","PERIOD":"95.592","GP_ID":"210689887","SEMIMAJOR_AXIS":"6925.360","ECCENTRICITY":"0.00014780","LAUNCH_DATE":"2020-08-18","MEAN_MOTION_DOT":"0.00006816","ELEMENT_SET_NO":"999","CENTER_NAME":"EARTH","REV_AT_EPOCH":"11129","MEAN_ELEMENT_THEORY":"SGP4","INCLINATION":"53.0581"},{"PERIOD":"95.593","OBJECT_NAME":"STARLINK-1639","CLASSIFICATION_TYPE":"U","OBJECT_ID":"2020-057U","FILE":"3542671","DECAY_DATE":null,"RCS_SIZE":"LARGE","APOAPSIS":"548.325","TLE_LINE1":"1 46135U 20057U   22233.66881258  .00004658  00000-0  33151-3 0  9998","MEAN_ANOMALY":"272.1571","INCLINATION":"53.0553","ELEMENT_SET_NO":"999","REV_AT_EPOCH":"11128","MEAN_ELEMENT_THEORY":"SGP4","CENTER_NAME":"EARTH","LAUNCH_DATE":"2020-08-18","MEAN_MOTION_DOT":"0.00004658","SEMIMAJOR_AXIS":"6925.392","GP_ID":"210688637","ECCENTRICITY":"0.00015430","TIME_SYSTEM":"UTC","PERIAPSIS":"546.188","ARG_OF_PERICENTER":"87.9595","REF_FRAME":"TEME","EPHEMERIS_TYPE":"0","RA_OF_ASC_NODE":"334.6840","SITE":"AFETR","MEAN_MOTION_DDOT":"0.0000000000000","COUNTRY_CODE":"US","MEAN_MOTION":"15.06385925","TLE_LINE2":"2 46135  53.0553 334.6840 0001543  87.9595 272.1571 15.06385925111288","NORAD_CAT_ID":"46135","BSTAR":"0.00033151000000","OBJECT_TYPE":"PAYLOAD","EPOCH":"2022-08-21T16:03:05.406912"},{"ELEMENT_SET_NO":"999","REV_AT_EPOCH":"11154","MEAN_ELEMENT_THEORY":"SGP4","CENTER_NAME":"EARTH","INCLINATION":"53.0559","SEMIMAJOR_AXIS":"6925.355","GP_ID":"210661899","ECCENTRICITY":"0.00013300","LAUNCH_DATE":"2020-08-18","MEAN_MOTION_DOT":"0.00001277","OBJECT_NAME":"STARLINK-1643","CLASSIFICATION_TYPE":"U","OBJECT_ID":"2020-057V","FILE":"3542357","PERIOD":"95.592","TLE_LINE1":"1 46136U 20057V   22233.78303390  .00001277  00000-0  10464-3 0  9994","APOAPSIS":"548.141","MEAN_ANOMALY":"264.8073","DECAY_DATE":null,"RCS_SIZE":"LARGE","COUNTRY_CODE":"US","MEAN_MOTION":"15.06397869","RA_OF_ASC_NODE":"4.1491","SITE":"AFETR","MEAN_MOTION_DDOT":"0.0000000000000","BSTAR":"0.00010464000000","OBJECT_TYPE":"PAYLOAD","EPOCH":"2022-08-21T18:47:34.128960","TLE_LINE2":"2 46136  53.0559   4.1491 0001330  95.3067 264.8073 15.06397869111541","NORAD_CAT_ID":"46136","PERIAPSIS":"546.299","ARG_OF_PERICENTER":"95.3067","TIME_SYSTEM":"UTC","EPHEMERIS_TYPE":"0","REF_FRAME":"TEME"},{"RA_OF_ASC_NODE":"354.0869","MEAN_MOTION_DDOT":"0.0000000000000","SITE":"AFETR","COUNTRY_CODE":"US","MEAN_MOTION":"15.06383634","TLE_LINE2":"2 46137  53.0555 354.0869 0001639  71.4575 288.6592 15.06383634111023","NORAD_CAT_ID":"46137","OBJECT_TYPE":"PAYLOAD","BSTAR":"0.00017792000000","EPOCH":"2022-08-21T19:16:48.394560","TIME_SYSTEM":"UTC","PERIAPSIS":"546.129","ARG_OF_PERICENTER":"71.4575","REF_FRAME":"TEME","EPHEMERIS_TYPE":"0","INCLINATION":"53.0555","ELEMENT_SET_NO":"999","CENTER_NAME":"EARTH","REV_AT_EPOCH":"11102","MEAN_ELEMENT_THEORY":"SGP4","LAUNCH_DATE":"2020-08-18","MEAN_MOTION_DOT":"0.00002368","SEMIMAJOR_AXIS":"6925.399","GP_ID":"210689135","ECCENTRICITY":"0.00016390","PERIOD":"95.593","CLASSIFICATION_TYPE":"U","OBJECT_NAME":"STARLINK-1586","FILE":"3542671","OBJECT_ID":"2020-057W","DECAY_DATE":null,"RCS_SIZE":"LARGE","TLE_LINE1":"1 46137U 20057W   22233.80333790  .00002368  00000-0  17792-3 0  9998","MEAN_ANOMALY":"288.6592","APOAPSIS":"548.399"},{"PERIOD":"95.592","CLASSIFICATION_TYPE":"U","OBJECT_NAME":"STARLINK-1590","FILE":"3542671","OBJECT_ID":"2020-057X","DECAY_DATE":null,"RCS_SIZE":"LARGE","TLE_LINE1":"1 46138U 20057X   22233.73514645  .00000910  00000-0  79990-4 0  9991","APOAPSIS":"548.272","MEAN_ANOMALY":"272.0670","INCLINATION":"53.0557","ELEMENT_SET_NO":"999","MEAN_ELEMENT_THEORY":"SGP4","REV_AT_EPOCH":"11073","CENTER_NAME":"EARTH","LAUNCH_DATE":"2020-08-18","MEAN_MOTION_DOT":"0.00000910","GP_ID":"210689388","SEMIMAJOR_AXIS":"6925.354","ECCENTRICITY":"0.00015200","TIME_SYSTEM":"UTC","PERIAPSIS":"546.166","ARG_OF_PERICENTER":"88.0493","REF_FRAME":"TEME","EPHEMERIS_TYPE":"0","RA_OF_ASC_NODE":"14.3881","MEAN_MOTION_DDOT":"0.0000000000000","SITE":"AFETR","COUNTRY_CODE":"US","MEAN_MOTION":"15.06398232","TLE_LINE2":"2 46138  53.0557  14.3881 0001520  88.0493 272.0670 15.06398232110739","NORAD_CAT_ID":"46138","OBJECT_TYPE":"PAYLOAD","BSTAR":"0.00007999000000","EPOCH":"2022-08-21T17:38:36.653280"},{"REF_FRAME":"TEME","EPHEMERIS_TYPE":"0","TIME_SYSTEM":"UTC","ARG_OF_PERICENTER":"67.6669","PERIAPSIS":"546.304","NORAD_CAT_ID":"46140","TLE_LINE2":"2 46140  53.0555 333.6614 0001406  67.6669 292.4469 15.06378951112585","EPOCH":"2022-08-21T21:26:51.062784","OBJECT_TYPE":"PAYLOAD","BSTAR":"0.00006757000000","MEAN_MOTION_DDOT":"0.0000000000000","SITE":"AFETR","RA_OF_ASC_NODE":"333.6614","MEAN_MOTION":"15.06378951","COUNTRY_CODE":"US","RCS_SIZE":"LARGE","DECAY_DATE":null,"TLE_LINE1":"1 46140U 20057Z   22233.89364656  .00000725  00000-0  67570-4 0  9991","APOAPSIS":"548.252","MEAN_ANOMALY":"292.4469","PERIOD":"95.593","FILE":"3542671","OBJECT_ID":"2020-057Z","CLASSIFICATION_TYPE":"U","OBJECT_NAME":"STARLINK-1594","MEAN_MOTION_DOT":"0.00000725","LAUNCH_DATE":"2020-08-18","ECCENTRICITY":"0.00014060","SEMIMAJOR_AXIS":"6925.413","GP_ID":"210688139","INCLINATION":"53.0555","REV_AT_EPOCH":"11258","MEAN_ELEMENT_THEORY":"SGP4","CENTER_NAME":"EARTH","ELEMENT_SET_NO":"999"},{"BSTAR":"-0.00023650000000","OBJECT_TYPE":"PAYLOAD","EPOCH":"2022-08-21T14:32:50.930592","TLE_LINE2":"2 46141  53.0548 334.9527 0001473  96.4123 263.7034 15.06391643111271","NORAD_CAT_ID":"46141","COUNTRY_CODE":"US","MEAN_MOTION":"15.06391643","RA_OF_ASC_NODE":"334.9527","MEAN_MOTION_DDOT":"0.0000000000000","SITE":"AFETR","EPHEMERIS_TYPE":"0","REF_FRAME":"TEME","PERIAPSIS":"546.219","ARG_OF_PERICENTER":"96.4123","TIME_SYSTEM":"UTC","GP_ID":"210680089","SEMIMAJOR_AXIS":"6925.374","ECCENTRICITY":"0.00014730","LAUNCH_DATE":"2020-08-18","MEAN_MOTION_DOT":"-0.00003802","ELEMENT_SET_NO":"999","REV_AT_EPOCH":"11127","CENTER_NAME":"EARTH","MEAN_ELEMENT_THEORY":"SGP4","INCLINATION":"53.0548","TLE_LINE1":"1 46141U 20057AA  22233.60614503 -.00003802  00000-0 -23650-3 0  9991","APOAPSIS":"548.259","MEAN_ANOMALY":"263.7034","DECAY_DATE":null,"RCS_SIZE":"LARGE","OBJECT_NAME":"STARLINK-1596","CLASSIFICATION_TYPE":"U","OBJECT_ID":"2020-057AA","FILE":"3542671","PERIOD":"95.593"}];
